YAOGAN-30 07B           
1 45461U 20021B   26068.53469634  .00003828  00000+0  28705-3 0  9992
2 45461  34.9937  97.6546 0001580  52.3271 307.7581 15.02173900325490
STARLINK-6171           
1 56883U 23083H   26068.06695805  .00000909  00000+0  82377-4 0  9995
2 56883  43.0075  85.4284 0000897 256.5724 103.5019 15.02531366151577
