[{"OBJECT_NAME":"YAOGAN-30 07B","OBJECT_ID":"2020-021B","EPOCH":"2026-03-09T12:49:57.763776","MEAN_MOTION":15.021739,"ECCENTRICITY":0.00015807,"INCLINATION":34.9937,"RA_OF_ASC_NODE":97.6546,"ARG_OF_PERICENTER":52.3271,"MEAN_ANOMALY":307.7581,"EPHEMERIS_TYPE":0,"CLASSIFICATION_TYPE":"U","NORAD_CAT_ID":45461,"ELEMENT_SET_NO":999,"REV_AT_EPOCH":32549,"BSTAR":0.00028705108,"MEAN_MOTION_DOT":3.828e-5,"MEAN_MOTION_DDOT":0},{"OBJECT_NAME":"STARLINK-6171","OBJECT_ID":"2023-083H","EPOCH":"2026-03-09T01:36:25.175520","MEAN_MOTION":15.02531366,"ECCENTRICITY":8.97e-5,"INCLINATION":43.0075,"RA_OF_ASC_NODE":85.4284,"ARG_OF_PERICENTER":256.5724,"MEAN_ANOMALY":103.5019,"EPHEMERIS_TYPE":0,"CLASSIFICATION_TYPE":"U","NORAD_CAT_ID":56883,"ELEMENT_SET_NO":999,"REV_AT_EPOCH":15157,"BSTAR":8.2376586e-5,"MEAN_MOTION_DOT":9.09e-6,"MEAN_MOTION_DDOT":0}]
